[{"OBJECT_NAME":"STARLINK-3509","OBJECT_ID":"2022-016Z","EPOCH":"2025-11-02T08:13:02.819136","MEAN_MOTION":15.08838899,"ECCENTRICITY":0.0001452,"INCLINATION":53.215,"RA_OF_ASC_NODE":170.8048,"ARG_OF_PERICENTER":98.0234,"MEAN_ANOMALY":262.0923,"EPHEMERIS_TYPE":0,"CLASSIFICATION_TYPE":"U","NORAD_CAT_ID":51737,"ELEMENT_SET_NO":999,"REV_AT_EPOCH":20433,"BSTAR":8.6537e-5,"MEAN_MOTION_DOT":1.09e-5,"MEAN_MOTION_DDOT":0},{"OBJECT_NAME":"STARLINK-3515","OBJECT_ID":"2022-016AA","EPOCH":"2025-11-02T07:46:33.665664","MEAN_MOTION":15.08836861,"ECCENTRICITY":0.0001731,"INCLINATION":53.2164,"RA_OF_ASC_NODE":170.889,"ARG_OF_PERICENTER":87.0349,"MEAN_ANOMALY":273.0841,"EPHEMERIS_TYPE":0,"CLASSIFICATION_TYPE":"U","NORAD_CAT_ID":51738,"ELEMENT_SET_NO":999,"REV_AT_EPOCH":20433,"BSTAR":9.1535e-5,"MEAN_MOTION_DOT":1.169e-5,"MEAN_MOTION_DDOT":0},{"OBJECT_NAME":"STARLINK-3516","OBJECT_ID":"2022-016AB","EPOCH":"2025-11-02T08:02:26.979072","MEAN_MOTION":15.08834651,"ECCENTRICITY":0.000136,"INCLINATION":53.2158,"RA_OF_ASC_NODE":170.8381,"ARG_OF_PERICENTER":100.8448,"MEAN_ANOMALY":259.2697,"EPHEMERIS_TYPE":0,"CLASSIFICATION_TYPE":"U","NORAD_CAT_ID":51739,"ELEMENT_SET_NO":999,"REV_AT_EPOCH":20433,"BSTAR":9.9165e-5,"MEAN_MOTION_DOT":1.29e-5,"MEAN_MOTION_DDOT":0},{"OBJECT_NAME":"STARLINK-3500","OBJECT_ID":"2022-016AC","EPOCH":"2025-11-01T22:03:38.233728","MEAN_MOTION":15.08839873,"ECCENTRICITY":0.00014457,"INCLINATION":53.2171,"RA_OF_ASC_NODE":172.7066,"ARG_OF_PERICENTER":92.8195,"MEAN_ANOMALY":267.2963,"EPHEMERIS_TYPE":0,"CLASSIFICATION_TYPE":"U","NORAD_CAT_ID":51740,"ELEMENT_SET_NO":999,"REV_AT_EPOCH":20427,"BSTAR":2.7360292e-5,"MEAN_MOTION_DOT":1.48e-6,"MEAN_MOTION_DDOT":0},{"OBJECT_NAME":"STARLINK-3520","OBJECT_ID":"2022-016AD","EPOCH":"2025-11-02T07:53:13.891200","MEAN_MOTION":15.08832271,"ECCENTRICITY":0.0001552,"INCLINATION":53.2153,"RA_OF_ASC_NODE":170.8777,"ARG_OF_PERICENTER":87.4046,"MEAN_ANOMALY":272.7124,"EPHEMERIS_TYPE":0,"CLASSIFICATION_TYPE":"U","NORAD_CAT_ID":51741,"ELEMENT_SET_NO":999,"REV_AT_EPOCH":20433,"BSTAR":3.9645e-6,"MEAN_MOTION_DOT":-2.25e-6,"MEAN_MOTION_DDOT":0},{"OBJECT_NAME":"STARLINK-3521","OBJECT_ID":"2022-016AE","EPOCH":"2025-11-02T07:57:11.040192","MEAN_MOTION":15.08833853,"ECCENTRICITY":0.0001175,"INCLINATION":53.2152,"RA_OF_ASC_NODE":171.0475,"ARG_OF_PERICENTER":91.3987,"MEAN_ANOMALY":268.714,"EPHEMERIS_TYPE":0,"CLASSIFICATION_TYPE":"U","NORAD_CAT_ID":51742,"ELEMENT_SET_NO":999,"REV_AT_EPOCH":20433,"BSTAR":9.1625e-5,"MEAN_MOTION_DOT":1.17e-5,"MEAN_MOTION_DDOT":0},{"OBJECT_NAME":"STARLINK-3512","OBJECT_ID":"2022-016AF","EPOCH":"2025-11-02T07:58:26.538240","MEAN_MOTION":15.08855619,"ECCENTRICITY":0.0001192,"INCLINATION":53.2157,"RA_OF_ASC_NODE":160.7744,"ARG_OF_PERICENTER":66.1372,"MEAN_ANOMALY":293.9745,"EPHEMERIS_TYPE":0,"CLASSIFICATION_TYPE":"U","NORAD_CAT_ID":51743,"ELEMENT_SET_NO":999,"REV_AT_EPOCH":20447,"BSTAR":0.0003031,"MEAN_MOTION_DOT":4.541e-5,"MEAN_MOTION_DDOT":0},{"OBJECT_NAME":"STARLINK-3452","OBJECT_ID":"2022-016AG","EPOCH":"2025-11-03T13:37:41.020896","MEAN_MOTION":15.08839093,"ECCENTRICITY":0.0001683,"INCLINATION":53.2138,"RA_OF_ASC_NODE":165.3331,"ARG_OF_PERICENTER":92.818,"MEAN_ANOMALY":267.3005,"EPHEMERIS_TYPE":0,"CLASSIFICATION_TYPE":"U","NORAD_CAT_ID":51744,"ELEMENT_SET_NO":999,"REV_AT_EPOCH":20452,"BSTAR":8.2019e-5,"MEAN_MOTION_DOT":1.017e-5,"MEAN_MOTION_DDOT":0},{"OBJECT_NAME":"STARLINK-3449","OBJECT_ID":"2022-016AH","EPOCH":"2025-11-03T13:53:33.626688","MEAN_MOTION":15.08848043,"ECCENTRICITY":0.00014,"INCLINATION":53.2149,"RA_OF_ASC_NODE":165.2537,"ARG_OF_PERICENTER":90.5382,"MEAN_ANOMALY":269.577,"EPHEMERIS_TYPE":0,"CLASSIFICATION_TYPE":"U","NORAD_CAT_ID":51745,"ELEMENT_SET_NO":999,"REV_AT_EPOCH":20452,"BSTAR":0.00012363,"MEAN_MOTION_DOT":1.681e-5,"MEAN_MOTION_DDOT":0},{"OBJECT_NAME":"STARLINK-3502","OBJECT_ID":"2022-016AJ","EPOCH":"2025-11-02T08:05:08.713824","MEAN_MOTION":15.08842852,"ECCENTRICITY":0.0001502,"INCLINATION":53.2152,"RA_OF_ASC_NODE":160.8397,"ARG_OF_PERICENTER":82.3457,"MEAN_ANOMALY":277.7705,"EPHEMERIS_TYPE":0,"CLASSIFICATION_TYPE":"U","NORAD_CAT_ID":51746,"ELEMENT_SET_NO":999,"REV_AT_EPOCH":20447,"BSTAR":3.128e-5,"MEAN_MOTION_DOT":2.1e-6,"MEAN_MOTION_DDOT":0},{"OBJECT_NAME":"STARLINK-3446","OBJECT_ID":"2022-016AK","EPOCH":"2025-11-03T13:44:21.916896","MEAN_MOTION":15.08836774,"ECCENTRICITY":0.0001462,"INCLINATION":53.2157,"RA_OF_ASC_NODE":165.3331,"ARG_OF_PERICENTER":89.9593,"MEAN_ANOMALY":270.1567,"EPHEMERIS_TYPE":0,"CLASSIFICATION_TYPE":"U","NORAD_CAT_ID":51747,"ELEMENT_SET_NO":999,"REV_AT_EPOCH":20452,"BSTAR":1.9608e-5,"MEAN_MOTION_DOT":2.4e-7,"MEAN_MOTION_DDOT":0},{"OBJECT_NAME":"STARLINK-3501","OBJECT_ID":"2022-016AL","EPOCH":"2025-11-02T07:53:09.471840","MEAN_MOTION":15.08849663,"ECCENTRICITY":0.0001932,"INCLINATION":53.218,"RA_OF_ASC_NODE":160.8667,"ARG_OF_PERICENTER":88.0351,"MEAN_ANOMALY":272.0863,"EPHEMERIS_TYPE":0,"CLASSIFICATION_TYPE":"U","NORAD_CAT_ID":51748,"ELEMENT_SET_NO":999,"REV_AT_EPOCH":20447,"BSTAR":0.00011583,"MEAN_MOTION_DOT":1.556e-5,"MEAN_MOTION_DDOT":0},{"OBJECT_NAME":"STARLINK-3451","OBJECT_ID":"2022-016AM","EPOCH":"2025-11-02T08:34:16.533984","MEAN_MOTION":15.08839791,"ECCENTRICITY":0.0001676,"INCLINATION":53.2169,"RA_OF_ASC_NODE":170.9227,"ARG_OF_PERICENTER":83.3845,"MEAN_ANOMALY":276.7338,"EPHEMERIS_TYPE":0,"CLASSIFICATION_TYPE":"U","NORAD_CAT_ID":51749,"ELEMENT_SET_NO":999,"REV_AT_EPOCH":20433,"BSTAR":-1.2643e-5,"MEAN_MOTION_DOT":-4.89e-6,"MEAN_MOTION_DDOT":0},{"OBJECT_NAME":"STARLINK-3505","OBJECT_ID":"2022-016AN","EPOCH":"2025-11-03T20:17:49.617888","MEAN_MOTION":15.08836264,"ECCENTRICITY":0.0001411,"INCLINATION":53.2154,"RA_OF_ASC_NODE":154.0665,"ARG_OF_PERICENTER":89.8564,"MEAN_ANOMALY":270.2589,"EPHEMERIS_TYPE":0,"CLASSIFICATION_TYPE":"U","NORAD_CAT_ID":51750,"ELEMENT_SET_NO":999,"REV_AT_EPOCH":20470,"BSTAR":2.2443e-5,"MEAN_MOTION_DOT":6.9e-7,"MEAN_MOTION_DDOT":0},{"OBJECT_NAME":"STARLINK-3506","OBJECT_ID":"2022-016AP","EPOCH":"2025-11-02T07:59:51.346752","MEAN_MOTION":15.08829978,"ECCENTRICITY":0.0001542,"INCLINATION":53.2154,"RA_OF_ASC_NODE":160.8567,"ARG_OF_PERICENTER":102.8416,"MEAN_ANOMALY":257.2748,"EPHEMERIS_TYPE":0,"CLASSIFICATION_TYPE":"U","NORAD_CAT_ID":51751,"ELEMENT_SET_NO":999,"REV_AT_EPOCH":20447,"BSTAR":-8.4771e-5,"MEAN_MOTION_DOT":-1.636e-5,"MEAN_MOTION_DDOT":0},{"OBJECT_NAME":"STARLINK-3511","OBJECT_ID":"2022-016AQ","EPOCH":"2025-11-03T13:40:22.471392","MEAN_MOTION":15.0883941,"ECCENTRICITY":0.0001179,"INCLINATION":53.2163,"RA_OF_ASC_NODE":155.2289,"ARG_OF_PERICENTER":91.5764,"MEAN_ANOMALY":268.5364,"EPHEMERIS_TYPE":0,"CLASSIFICATION_TYPE":"U","NORAD_CAT_ID":51752,"ELEMENT_SET_NO":999,"REV_AT_EPOCH":20466,"BSTAR":9.4968e-5,"MEAN_MOTION_DOT":1.224e-5,"MEAN_MOTION_DDOT":0},{"OBJECT_NAME":"STARLINK-3507","OBJECT_ID":"2022-016AR","EPOCH":"2025-11-01T23:52:19.658208","MEAN_MOTION":15.08837993,"ECCENTRICITY":0.00014589,"INCLINATION":53.216,"RA_OF_ASC_NODE":162.3758,"ARG_OF_PERICENTER":88.6819,"MEAN_ANOMALY":271.434,"EPHEMERIS_TYPE":0,"CLASSIFICATION_TYPE":"U","NORAD_CAT_ID":51753,"ELEMENT_SET_NO":999,"REV_AT_EPOCH":20442,"BSTAR":0.00014126913,"MEAN_MOTION_DOT":1.961e-5,"MEAN_MOTION_DDOT":0}]
