STARLINK-3509           
1 51737U 22016Z   25306.34239374  .00001090  00000+0  86537-4 0  9997
2 51737  53.2150 170.8048 0001452  98.0234 262.0923 15.08838899204332
STARLINK-3515           
1 51738U 22016AA  25306.32400076  .00001169  00000+0  91535-4 0  9996
2 51738  53.2164 170.8890 0001731  87.0349 273.0841 15.08836861204336
STARLINK-3516           
1 51739U 22016AB  25306.33503448  .00001290  00000+0  99165-4 0  9997
2 51739  53.2158 170.8381 0001360 100.8448 259.2697 15.08834651204337
STARLINK-3500           
1 51740U 22016AC  25305.91919252  .00000148  00000+0  27360-4 0  9995
2 51740  53.2171 172.7066 0001445  92.8195 267.2963 15.08839873204277
STARLINK-3520           
1 51741U 22016AD  25306.32863300 -.00000225  00000+0  39645-5 0  9991
2 51741  53.2153 170.8777 0001552  87.4046 272.7124 15.08832271204332
STARLINK-3521           
1 51742U 22016AE  25306.33137778  .00001170  00000+0  91625-4 0  9990
2 51742  53.2152 171.0475 0001175  91.3987 268.7140 15.08833853204339
STARLINK-3512           
1 51743U 22016AF  25306.33225160  .00004541  00000+0  30310-3 0  9992
2 51743  53.2157 160.7744 0001192  66.1372 293.9745 15.08855619204476
STARLINK-3452           
1 51744U 22016AG  25307.56783589  .00001017  00000+0  82019-4 0  9992
2 51744  53.2138 165.3331 0001683  92.8180 267.3005 15.08839093204525
STARLINK-3449           
1 51745U 22016AH  25307.57886142  .00001681  00000+0  12363-3 0  9994
2 51745  53.2149 165.2537 0001400  90.5382 269.5770 15.08848043204529
STARLINK-3502           
1 51746U 22016AJ  25306.33690641  .00000210  00000+0  31280-4 0  9992
2 51746  53.2152 160.8397 0001502  82.3457 277.7705 15.08842852204479
STARLINK-3446           
1 51747U 22016AK  25307.57247589  .00000024  00000+0  19608-4 0  9992
2 51747  53.2157 165.3331 0001462  89.9593 270.1567 15.08836774204527
STARLINK-3501           
1 51748U 22016AL  25306.32858185  .00001556  00000+0  11583-3 0  9999
2 51748  53.2180 160.8667 0001932  88.0351 272.0863 15.08849663204475
STARLINK-3451           
1 51749U 22016AM  25306.35713581 -.00000489  00000+0 -12643-4 0  9998
2 51749  53.2169 170.9227 0001676  83.3845 276.7338 15.08839791204332
STARLINK-3505           
1 51750U 22016AN  25307.84571317  .00000069  00000+0  22443-4 0  9995
2 51750  53.2154 154.0665 0001411  89.8564 270.2589 15.08836264204703
STARLINK-3506           
1 51751U 22016AP  25306.33323318 -.00001636  00000+0 -84771-4 0  9990
2 51751  53.2154 160.8567 0001542 102.8416 257.2748 15.08829978204477
STARLINK-3511           
1 51752U 22016AQ  25307.56970453  .00001224  00000+0  94968-4 0  9995
2 51752  53.2163 155.2289 0001179  91.5764 268.5364 15.08839410204665
STARLINK-3507           
1 51753U 22016AR  25305.99467197  .00001961  00000+0  14127-3 0  9993
2 51753  53.2160 162.3758 0001458  88.6819 271.4340 15.08837993204426
